NORAD_CAT_ID,OBJECT_NAME,OBJECT_TYPE,EPOCH,MEAN_MOTION,ECCENTRICITY,INCLINATION,RA_OF_ASC_NODE,ARG_OF_PERICENTER,MEAN_ANOMALY,BSTAR,MEAN_MOTION_DOT,MEAN_MOTION_DDOT,TLE_LINE0,TLE_LINE1,TLE_LINE2,SEMIMAJOR_AXIS,PERIOD,APOGEE,PERIGEE,DECAYED
55273.0,STARLINK-5291,PAYLOAD,2023-04-29 11:57:10,14.99144937,0.0002881,69.9996,159.8663,270.3081,89.7748,-7.0324e-05,-9.51e-06,0.0,0 STARLINK-5291,1 55273U 23010E   23119.49804248 -.00000951  00000-0 -70324-4 0  9990,2 55273  69.9996 159.8663 0002881 270.3081  89.7748 14.99144937 16225,6947.674,96.055,571.541,567.537,0.0
55273.0,STARLINK-5291,PAYLOAD,2023-04-30 11:58:24,14.99146701,0.0002907,69.9994,157.3399,269.0298,91.0529,-0.00014472,-1.857e-05,0.0,0 STARLINK-5291,1 55273U 23010E   23120.49889648 -.00001857  00000-0 -14472-3 0  9996,2 55273  69.9994 157.3399 0002907 269.0298  91.0529 14.99146701 16051,6947.668,96.055,571.553,567.514,0.0
55273.0,STARLINK-5291,PAYLOAD,2023-05-01 11:59:39,14.99134888,0.0003109,69.9987,154.8111,269.5109,90.5694,-4.6762e-05,-6.63e-06,0.0,0 STARLINK-5291,1 55273U 23010E   23121.49975906 -.00000663  00000-0 -46762-4 0  9992,2 55273  69.9987 154.8111 0003109 269.5109  90.5694 14.99134888 16205,6947.705,96.055,571.73,567.41,0.0
55273.0,STARLINK-5291,PAYLOAD,2023-05-02 12:00:53,14.99142834,0.0002945,69.9989,152.2835,271.5987,88.4835,-2.0166e-05,-3.39e-06,0.0,0 STARLINK-5291,1 55273U 23010E   23122.50061348 -.00000339  00000-0 -20166-4 0  9991,2 55273  69.9989 152.2835 0002945 271.5987  88.4835 14.99142834 16355,6947.68,96.055,571.591,567.499,0.0
55273.0,STARLINK-5291,PAYLOAD,2023-05-03 05:37:46,14.99184934,0.0002567,69.9986,150.4311,265.0088,95.0779,-0.00062674,-7.731e-05,0.0,0 STARLINK-5291,1 55273U 23010E   23123.23456855 -.00007731  00000-0 -62674-3 0  9995,2 55273  69.9986 150.4311 0002567 265.0088  95.0779 14.99184934 16461,6947.55,96.052,571.199,567.632,0.0
55273.0,STARLINK-5291,PAYLOAD,2023-05-03 12:02:06,14.99145374,0.0003007,69.9989,149.7577,267.5874,92.4941,0.00012786,1.465e-05,0.0,0 STARLINK-5291,1 55273U 23010E   23123.50146449  .00001465  00000-0  12786-3 0  9995,2 55273  69.9989 149.7577 0003007 267.5874  92.4941 14.99145374 16501,6947.673,96.055,571.627,567.448,0.0
55273.0,STARLINK-5291,PAYLOAD,2023-05-04 05:39:01,14.99133177,0.0002577,69.9992,147.9046,267.6908,92.3956,0.00011169,1.267e-05,0.0,0 STARLINK-5291,1 55273U 23010E   23124.23543475  .00001267  00000-0  11169-3 0  9990,2 55273  69.9992 147.9046 0002577 267.6908  92.3956 14.99133177 16611,6947.71,96.056,571.366,567.785,0.0
55273.0,STARLINK-5291,PAYLOAD,2023-05-04 12:03:21,14.99136867,0.0003306,69.9983,147.2307,272.5332,87.5449,-4.0827e-05,-5.91e-06,0.0,0 STARLINK-5291,1 55273U 23010E   23124.50233243 -.00000591  00000-0 -40827-4 0  9994,2 55273  69.9983 147.2307 0003306 272.5332  87.5449 14.99136867 16972,6947.699,96.055,571.861,567.267,0.0
55273.0,STARLINK-5291,PAYLOAD,2023-05-05 08:52:25,14.99139135,0.0003222,69.9985,145.0408,270.6833,89.3957,-0.00012703,-1.641e-05,0.0,0 STARLINK-5291,1 55273U 23010E   23125.36974522 -.00001641  00000-0 -12703-3 0  9999,2 55273  69.9985 145.0408 0003222 270.6833  89.3957 14.99139135 16788,6947.692,96.055,571.795,567.318,0.0
55273.0,STARLINK-5291,PAYLOAD,2023-05-05 18:28:55,14.99137989,0.0003364,69.9982,144.03,271.7787,88.2987,-7.6683e-05,-1.028e-05,0.0,0 STARLINK-5291,1 55273U 23010E   23125.77008846 -.00001028  00000-0 -76683-4 0  9998,2 55273  69.9982 144.0300 0003364 271.7787  88.2987 14.99137989 17161,6947.695,96.055,571.898,567.223,0.0
55273.0,STARLINK-5291,PAYLOAD,2023-05-06 07:17:35,14.99134872,0.0003455,69.9981,142.6821,272.0406,88.0358,2.1425e-05,1.67e-06,0.0,0 STARLINK-5291,1 55273U 23010E   23126.30388047  .00000167  00000-0  21425-4 0  9997,2 55273  69.9981 142.6821 0003455 272.0406  88.0358 14.99134872 17242,6947.705,96.055,571.97,567.17,0.0
55273.0,STARLINK-5291,PAYLOAD,2023-05-07 02:30:34,14.99136786,0.0003527,69.9979,140.6609,271.6135,88.462,4.4778e-05,4.52e-06,0.0,0 STARLINK-5291,1 55273U 23010E   23127.10456775  .00000452  00000-0  44778-4 0  9993,2 55273  69.9979 140.6609 0003527 271.6135  88.4620 14.99136786 17045,6947.699,96.055,572.015,567.114,0.0
55273.0,STARLINK-5291,PAYLOAD,2023-05-07 10:30:59,14.99137719,0.0003509,69.998,139.8187,271.5429,88.5329,5.2138e-05,5.42e-06,0.0,0 STARLINK-5291,1 55273U 23010E   23127.43818720  .00000542  00000-0  52138-4 0  9990,2 55273  69.9980 139.8187 0003509 271.5429  88.5329 14.99137719 17418,6947.696,96.055,571.999,567.123,0.0
55273.0,STARLINK-5291,PAYLOAD,2023-05-07 18:31:24,14.99136448,0.0003495,69.998,138.9759,271.9457,88.1302,2.7999e-05,2.47e-06,0.0,0 STARLINK-5291,1 55273U 23010E   23127.77180889  .00000247  00000-0  27999-4 0  9994,2 55273  69.9980 138.9759 0003495 271.9457  88.1302 14.99136448 17462,6947.7,96.055,571.993,567.137,0.0
55273.0,STARLINK-5291,PAYLOAD,2023-05-08 04:07:54,14.99137549,0.0003457,69.998,137.9653,272.1147,87.9616,8.9401e-06,1.5e-07,0.0,0 STARLINK-5291,1 55273U 23010E   23128.17215307  .00000015  00000-0  89401-5 0  9993,2 55273  69.9980 137.9653 0003457 272.1147  87.9616 14.99137549 17201,6947.697,96.055,571.964,567.16,0.0
55273.0,STARLINK-5291,PAYLOAD,2023-05-08 10:32:13,14.99138512,0.000347,69.9979,137.2913,271.5079,88.5683,1.1708e-05,4.9e-07,0.0,0 STARLINK-5291,1 55273U 23010E   23128.43904828  .00000049  00000-0  11708-4 0  9996,2 55273  69.9979 137.2913 0003470 271.5079  88.5683 14.99138512 17564,6947.694,96.055,571.97,567.148,0.0
55273.0,STARLINK-5291,PAYLOAD,2023-05-09 04:09:08,14.99140352,0.0003469,69.9978,135.4383,271.386,88.6902,8.4002e-06,9e-08,0.0,0 STARLINK-5291,1 55273U 23010E   23129.17301061  .00000009  00000-0  84002-5 0  9992,2 55273  69.9978 135.4383 0003469 271.3860  88.6902 14.99140352 17355,6947.688,96.055,571.963,567.143,0.0
55273.0,STARLINK-5291,PAYLOAD,2023-05-09 10:33:27,14.9914131,0.0003452,69.9979,134.7645,271.4509,88.6255,1.9787e-05,1.47e-06,0.0,0 STARLINK-5291,1 55273U 23010E   23129.43990529  .00000147  00000-0  19787-4 0  9994,2 55273  69.9979 134.7645 0003452 271.4509  88.6255 14.99141310 17718,6947.685,96.055,571.948,567.152,0.0
55273.0,STARLINK-5291,PAYLOAD,2023-05-10 08:58:37,14.99140398,0.0003414,69.9979,132.407,269.8357,90.2412,1.6565e-05,1.08e-06,0.0,0 STARLINK-5291,1 55273U 23010E   23130.37404093  .00000108  00000-0  16565-4 0  9993,2 55273  69.9979 132.4070 0003414 269.8357  90.2412 14.99140398 17859,6947.688,96.055,571.925,567.181,0.0
55273.0,STARLINK-5291,PAYLOAD,2023-05-10 16:59:01,14.99138942,0.0003421,69.9979,131.5642,270.7167,89.36,5.6086e-06,-2.5e-07,0.0,0 STARLINK-5291,1 55273U 23010E   23130.70766182 -.00000025  00000-0  56086-5 0  9992,2 55273  69.9979 131.5642 0003421 270.7167  89.3600 14.99138942 17908,6947.692,96.055,571.934,567.181,0.0
55273.0,STARLINK-5291,PAYLOAD,2023-05-11 08:59:51,14.99139047,0.0003348,69.998,129.8796,270.5287,89.5488,-1.4079e-05,-2.65e-06,0.0,0 STARLINK-5291,1 55273U 23010E   23131.37490202 -.00000265  00000-0 -14079-4 0  9995,2 55273  69.9980 129.8796 0003348 270.5287  89.5488 14.99139047 18004,6947.692,96.055,571.883,567.231,0.0
55273.0,STARLINK-5291,PAYLOAD,2023-05-11 17:00:16,14.99138869,0.0003331,69.9981,129.0372,270.096,89.9818,-1.1936e-05,-2.39e-06,0.0,0 STARLINK-5291,1 55273U 23010E   23131.70852187 -.00000239  00000-0 -11936-4 0  9996,2 55273  69.9981 129.0372 0003331 270.0960  89.9818 14.99138869 18059,6947.693,96.055,571.872,567.243,0.0
55273.0,STARLINK-5291,PAYLOAD,2023-05-12 05:48:55,14.9913943,0.000335,69.998,127.6896,269.978,90.0996,5.4556e-06,-2.7e-07,0.0,0 STARLINK-5291,1 55273U 23010E   23132.24231264 -.00000027  00000-0  54556-5 0  9993,2 55273  69.9980 127.6896 0003350 269.9780  90.0996 14.99139430 18135,6947.691,96.055,571.883,567.228,0.0
55273.0,STARLINK-5291,PAYLOAD,2023-05-12 17:01:30,14.99136905,0.0003347,69.9981,126.5105,269.7468,90.3308,-1.0284e-05,-2.19e-06,0.0,0 STARLINK-5291,1 55273U 23010E   23132.70938268 -.00000219  00000-0 -10284-4 0  9995,2 55273  69.9981 126.5105 0003347 269.7468  90.3308 14.99136905 17889,6947.699,96.055,571.889,567.238,0.0
55273.0,STARLINK-5291,PAYLOAD,2023-05-13 09:02:20,14.99135986,0.000336,69.9981,124.8258,269.1949,90.8825,-4.9833e-06,-1.55e-06,0.0,0 STARLINK-5291,1 55273U 23010E   23133.37662370 -.00000155  00000-0 -49833-5 0  9999,2 55273  69.9981 124.8258 0003360 269.1949  90.8825 14.99135986 18307,6947.702,96.055,571.901,567.232,0.0
55273.0,STARLINK-5291,PAYLOAD,2023-05-13 17:02:44,14.99138374,0.0003368,69.9982,123.9835,269.1321,90.9452,1.0007e-05,2.8e-07,0.0,0 STARLINK-5291,1 55273U 23010E   23133.71024190  .00000028  00000-0  10007-4 0  9996,2 55273  69.9982 123.9835 0003368 269.1321  90.9452 14.99138374 18357,6947.694,96.055,571.899,567.219,0.0
55273.0,STARLINK-5291,PAYLOAD,2023-05-14 07:27:29,14.99141939,0.000339,69.998,122.4672,268.7705,91.3066,4.349e-05,4.36e-06,0.0,0 STARLINK-5291,1 55273U 23010E   23134.31075390  .00000436  00000-0  43490-4 0  9996,2 55273  69.9980 122.4672 0003390 268.7705  91.3066 14.99141939 18126,6947.683,96.055,571.903,567.193,0.0
55273.0,STARLINK-5291,PAYLOAD,2023-05-14 09:03:34,14.99141934,0.0003389,69.998,122.2987,268.7783,91.2988,4.2828e-05,4.28e-06,0.0,0 STARLINK-5291,1 55273U 23010E   23134.37747779  .00000428  00000-0  42828-4 0  9994,2 55273  69.9980 122.2987 0003389 268.7783  91.2988 14.99141934 18450,6947.683,96.055,571.903,567.194,0.0
55273.0,STARLINK-5291,PAYLOAD,2023-05-14 17:04:08,14.99037752,0.0002974,69.998,121.4568,290.6398,69.4443,-0.001021,-0.00012479,0.0,0 STARLINK-5291,1 55273U 23010E   23134.71120725 -.00012479  00000-0 -10210-2 0  9997,2 55273  69.9980 121.4568 0002974 290.6398  69.4443 14.99037752 18502,6948.005,96.062,571.936,567.804,0.0
55273.0,STARLINK-5291,PAYLOAD,2023-05-15 01:05:02,14.98707688,0.0003621,69.9982,120.6199,270.3236,89.7508,-0.0043317,-0.00051905,0.0,0 STARLINK-5291,1 55273U 23010E   23135.04517170 -.00051905  00000-0 -43317-2 0  9999,2 55273  69.9982 120.6199 0003621 270.3236  89.7508 14.98707688 18239,6949.025,96.083,573.406,568.374,0.0
